H1 CPF  1  DLR 2021 04 04 10  5942 technosat            
H2  1704205 6203    42829 2021 04 04 00 00 00 2021 04 11 00 00 00    60 1 1  0 0 0
H9
10 0 59312  43200.000000  0      -4818497.009       4399681.150       2475854.133
10 0 59312  43260.000000  0      -4864159.242       4566294.731       2051554.988
10 0 59312  43320.000000  0      -4888005.011       4714022.937       1618571.266
10 0 59312  43380.000000  0      -4890107.395       4842058.740       1178737.259
10 0 59312  43440.000000  0      -4870638.112       4949679.721        733915.607
10 0 59312  43500.000000  0      -4829866.019       5036251.969        285989.286
10 0 59312  43560.000000  0      -4768155.164       5101233.591       -163146.528
10 0 59312  43620.000000  0      -4685962.404       5144177.813       -611592.675
10 0 59312  43680.000000  0      -4583834.470       5164735.595      -1057454.363
10 0 59312  43740.000000  0      -4462404.467       5162657.607      -1498849.313
10 0 59312  43800.000000  0      -4322388.203       5137795.878      -1933915.676
10 0 59312  43860.000000  0      -4164580.186       5090105.010      -2360820.053
10 0 59312  43920.000000  0      -3989849.156       5019642.760      -2777765.325
10 0 59312  43980.000000  0      -3799133.295       4926570.168      -3182998.213
10 0 59312  44040.000000  0      -3593435.159       4811151.181      -3574816.576
10 0 59312  44100.000000  0      -3373816.392       4673751.815      -3951576.418
10 0 59312  44160.000000  0      -3141392.243       4514838.874      -4311698.618
10 0 59312  44220.000000  0      -2897325.854       4334978.174      -4653675.320
10 0 59312  44280.000000  0      -2642822.484       4134832.414      -4976075.916
10 0 59312  44340.000000  0      -2379123.610       3915158.645      -5277552.787
10 0 59312  44400.000000  0      -2107500.915       3676805.276      -5556846.694
10 0 59312  44460.000000  0      -1829250.191       3420708.672      -5812791.748
10 0 59312  44520.000000  0      -1545685.224       3147889.351      -6044319.988
10 0 59312  44580.000000  0      -1258131.656       2859447.823      -6250465.522
10 0 59312  44640.000000  0       -967920.888       2556560.087      -6430368.205
10 0 59312  44700.000000  0       -676384.065       2240472.882      -6583276.893
10 0 59312  44760.000000  0       -384846.112       1912498.632      -6708552.347
10 0 59312  44820.000000  0        -94619.897       1574010.044      -6805669.654
10 0 59312  44880.000000  0        192999.462       1226434.520      -6874220.266
10 0 59312  44940.000000  0        476740.235        871248.334      -6913913.652
10 0 59312  45000.000000  0        755359.597        509970.549      -6924578.518
10 0 59312  45060.000000  0       1027648.967        144156.658      -6906163.535
10 0 59312  45120.000000  0       1292439.109       -224607.936      -6858737.577
10 0 59312  45180.000000  0       1548605.035       -594714.561      -6782489.544
10 0 59312  45240.000000  0       1795070.657       -964538.050      -6677727.810
10 0 59312  45300.000000  0       2030813.275      -1332443.696      -6544879.272
10 0 59312  45360.000000  0       2254867.847      -1696794.304      -6384487.852
10 0 59312  45420.000000  0       2466330.916      -2055957.265      -6197212.607
10 0 59312  45480.000000  0       2664364.300      -2408311.756      -5983825.512
10 0 59312  45540.000000  0       2848198.566      -2752256.068      -5745208.750
10 0 59312  45600.000000  0       3017136.197      -3086214.985      -5482351.458
10 0 59312  45660.000000  0       3170554.404      -3408647.096      -5196345.921
10 0 59312  45720.000000  0       3307907.530      -3718051.960      -4888383.324
10 0 59312  45780.000000  0       3428729.106      -4012977.154      -4559749.151
10 0 59312  45840.000000  0       3532633.570      -4292025.237      -4211818.201
10 0 59312  45900.000000  0       3619317.652      -4553860.592      -3846049.175
10 0 59312  45960.000000  0       3688561.394      -4797216.057      -3463978.832
10 0 59312  46020.000000  0       3740228.796      -5020899.400      -3067215.756
10 0 59312  46080.000000  0       3774268.001      -5223799.531      -2657433.656
10 0 59312  46140.000000  0       3790711.018      -5404892.313      -2236364.272
10 0 59312  46200.000000  0       3789673.072      -5563245.936      -1805790.040
10 0 59312  46260.000000  0       3771351.572      -5698026.018      -1367536.497
10 0 59312  46320.000000  0       3736024.633      -5808500.263       -923464.327
10 0 59312  46380.000000  0       3684049.152      -5894042.600       -475461.199
10 0 59312  46440.000000  0       3615858.462      -5954136.800        -25433.469
10 0 59312  46500.000000  0       3531959.589      -5988379.577        424702.204
10 0 59312  46560.000000  0       3432930.212      -5996483.185        873027.315
10 0 59312  46620.000000  0       3319415.274      -5978277.459       1317630.111
10 0 59312  46680.000000  0       3192123.146      -5933711.165       1756614.235
10 0 59312  46740.000000  0       3051821.468      -5862852.667       2188107.111
10 0 59312  46800.000000  0       2899332.788      -5765890.153       2610268.243
10 0 59312  46860.000000  0       2735529.833      -5643131.186       3021297.382
10 0 59312  46920.000000  0       2561330.631      -5495001.688       3419442.406
10 0 59312  46980.000000  0       2377693.492      -5322044.362       3803007.028
10 0 59312  47040.000000  0       2185611.768      -5124916.545       4170358.241
10 0 59312  47100.000000  0       1986108.441      -4904387.433       4519933.431
10 0 59312  47160.000000  0       1780230.695      -4661334.756       4850247.043
10 0 59312  47220.000000  0       1569044.466      -4396741.055       5159896.942
10 0 59312  47280.000000  0       1353628.861      -4111689.380       5447570.473
10 0 59312  47340.000000  0       1135070.544      -3807358.442       5712049.947
10 0 59312  47400.000000  0        914458.204      -3485017.377       5952217.620
10 0 59312  47460.000000  0        692877.103      -3146020.142       6167060.200
10 0 59312  47520.000000  0        471403.735      -2791799.583       6355672.918
10 0 59312  47580.000000  0        251100.584      -2423861.125       6517263.131
10 0 59312  47640.000000  0         33011.062      -2043776.171       6651153.379
10 0 59312  47700.000000  0       -181845.406      -1653175.300       6756784.043
10 0 59312  47760.000000  0       -392478.146      -1253741.130       6833715.573
10 0 59312  47820.000000  0       -597929.772       -847200.889       6881630.123
10 0 59312  47880.000000  0       -797280.498       -435318.869       6900332.697
10 0 59312  47940.000000  0       -989652.259        -19888.694       6889751.798
10 0 59312  48000.000000  0      -1174212.557        397274.532       6849939.578
10 0 59312  48060.000000  0      -1350178.025        814342.202       6781071.483
10 0 59312  48120.000000  0      -1516817.722       1229480.209       6683445.414
10 0 59312  48180.000000  0      -1673456.159       1640857.015       6557480.448
10 0 59312  48240.000000  0      -1819476.035       2046651.743       6403715.028
10 0 59312  48300.000000  0      -1954320.632       2445062.235       6222804.708
10 0 59312  48360.000000  0      -2077495.928       2834313.112       6015519.413
10 0 59312  48420.000000  0      -2188572.351       3212663.689       5782740.203
10 0 59312  48480.000000  0      -2287186.220       3578415.780       5525455.704
10 0 59312  48540.000000  0      -2373040.918       3929921.463       5244758.041
10 0 59312  48600.000000  0      -2445907.689       4265590.615       4941838.269
10 0 59312  48660.000000  0      -2505626.071       4583898.234       4617981.406
10 0 59312  48720.000000  0      -2552104.004       4883391.522       4274561.059
10 0 59312  48780.000000  0      -2585317.602       5162696.682       3913033.631
10 0 59312  48840.000000  0      -2605310.561       5420525.385       3534932.131
10 0 59312  48900.000000  0      -2612193.209       5655680.835       3141859.640
10 0 59312  48960.000000  0      -2606141.242       5867063.445       2735482.493
10 0 59312  49020.000000  0      -2587394.139       6053676.122       2317523.177
10 0 59312  49080.000000  0      -2556253.245       6214629.092       1889752.922
10 0 59312  49140.000000  0      -2513079.523       6349144.222       1453984.093
10 0 59312  49200.000000  0      -2458291.015       6456558.835       1012062.392
10 0 59312  49260.000000  0      -2392360.029       6536329.018        565858.896
10 0 59312  49320.000000  0      -2315810.058       6588032.339        117261.968
10 0 59312  49380.000000  0      -2229212.463       6611370.020       -331830.880
10 0 59312  49440.000000  0      -2133182.936       6606168.569       -779521.218
10 0 59312  49500.000000  0      -2028377.745       6572380.770      -1223917.992
10 0 59312  49560.000000  0      -1915489.709       6510085.946      -1663145.803
10 0 59312  49620.000000  0      -1795244.044       6419489.508      -2095352.879
10 0 59312  49680.000000  0      -1668394.126       6300922.048      -2518718.876
10 0 59312  49740.000000  0      -1535717.137       6154837.867      -2931462.475
10 0 59312  49800.000000  0      -1398009.675       5981813.025      -3331848.804
10 0 59312  49860.000000  0      -1256083.308       5782542.813      -3718196.679
10 0 59312  49920.000000  0      -1110760.102       5557838.639      -4088885.563
10 0 59312  49980.000000  0       -962868.156       5308624.405      -4442362.164
10 0 59312  50040.000000  0       -813237.160       5035932.467      -4777146.693
10 0 59312  50100.000000  0       -662694.006       4740899.157      -5091838.828
10 0 59312  50160.000000  0       -512058.452       4424759.859      -5385123.328
10 0 59312  50220.000000  0       -362138.885       4088843.649      -5655775.282
10 0 59312  50280.000000  0       -213728.179       3734567.539      -5902664.930
10 0 59312  50340.000000  0        -67599.700       3363430.370      -6124762.067
99
